[{"pk": "061805", "model": "ss.site", "fields": {"name": "Braintree Family Medicine", "zip_code": "02184"}}, {"pk": "061801", "model": "ss.site", "fields": {"name": "Braintree Internal Medicine A", "zip_code": "02184"}}, {"pk": "061802", "model": "ss.site", "fields": {"name": "Braintree Internal Medicine B", "zip_code": "02184"}}, {"pk": "061803", "model": "ss.site", "fields": {"name": "Braintree Internal Medicine C", "zip_code": "02184"}}, {"pk": "067701", "model": "ss.site", "fields": {"name": "Braintree Pediatric Asthma", "zip_code": "02184"}}, {"pk": "063401", "model": "ss.site", "fields": {"name": "Braintree Pediatrics", "zip_code": "02184"}}, {"pk": "064701", "model": "ss.site", "fields": {"name": "Braintree Urgent Care, After Hours, Adult", "zip_code": "02184"}}, {"pk": "064801", "model": "ss.site", "fields": {"name": "Braintree Urgent Care, After Hours, Pediatrics", "zip_code": "02184"}}, {"pk": "066401", "model": "ss.site", "fields": {"name": "Braintree Urgent Care, Weekend/Holiday, Adult", "zip_code": "02184"}}, {"pk": "066501", "model": "ss.site", "fields": {"name": "Braintree Urgent Care, Weekend/Holiday, Pediatric", "zip_code": "02184"}}, {"pk": "241801", "model": "ss.site", "fields": {"name": "Burlington Internal Medicine A", "zip_code": "01803"}}, {"pk": "243401", "model": "ss.site", "fields": {"name": "Burlington Pediatrics", "zip_code": "01803"}}, {"pk": "021801", "model": "ss.site", "fields": {"name": "Cambridge Internal Medicine 1", "zip_code": "02138"}}, {"pk": "021802", "model": "ss.site", "fields": {"name": "Cambridge Internal Medicine 2", "zip_code": "02138"}}, {"pk": "023401", "model": "ss.site", "fields": {"name": "Cambridge Pediatrics", "zip_code": "02138"}}, {"pk": "024701", "model": "ss.site", "fields": {"name": "Cambridge Urgent Care, After Hours, Adult", "zip_code": "02138"}}, {"pk": "131801", "model": "ss.site", "fields": {"name": "Chelmsford Internal Medicine A", "zip_code": "01824"}}, {"pk": "133401", "model": "ss.site", "fields": {"name": "Chelmsford Pediatrics", "zip_code": "01824"}}, {"pk": "134901", "model": "ss.site", "fields": {"name": "Chelmsford Urgent Care Combined", "zip_code": "01824"}}, {"pk": "134801", "model": "ss.site", "fields": {"name": "Chelmsford Urgent Care Pedi, After Hours", "zip_code": "01824"}}, {"pk": "136101", "model": "ss.site", "fields": {"name": "Chelmsford Urgent Care Weekend Combined", "zip_code": "01824"}}, {"pk": "391804", "model": "ss.site", "fields": {"name": "Concord Internal Medicine 1", "zip_code": "01742"}}, {"pk": "391801", "model": "ss.site", "fields": {"name": "Concord Internal Medicine A", "zip_code": "01742"}}, {"pk": "391802", "model": "ss.site", "fields": {"name": "Concord Internal Medicine B", "zip_code": "01742"}}, {"pk": "391803", "model": "ss.site", "fields": {"name": "Concord Internal Medicine D", "zip_code": "01742"}}, {"pk": "393401", "model": "ss.site", "fields": {"name": "Concord Pediatrics", "zip_code": "01742"}}, {"pk": "141801", "model": "ss.site", "fields": {"name": "Copley Internal Med. A", "zip_code": "02116"}}, {"pk": "143401", "model": "ss.site", "fields": {"name": "Copley Pediatrics", "zip_code": "02116"}}, {"pk": "701801", "model": "ss.site", "fields": {"name": "Dedham Internal Medicine", "zip_code": "02026"}}, {"pk": "703401", "model": "ss.site", "fields": {"name": "Dedham Pediatrics", "zip_code": "02026"}}, {"pk": "471801", "model": "ss.site", "fields": {"name": "Faulkner Internal Medicine", "zip_code": "02130"}}, {"pk": "721801", "model": "ss.site", "fields": {"name": "Framingham Adult Medicine", "zip_code": "01701"}}, {"pk": "723401", "model": "ss.site", "fields": {"name": "Framingham Pediatrics", "zip_code": "01701"}}, {"pk": "651803", "model": "ss.site", "fields": {"name": "Granite Internal Medicine - 2F", "zip_code": "02169"}}, {"pk": "651801", "model": "ss.site", "fields": {"name": "Granite Internal Medicine - 3A", "zip_code": "02169"}}, {"pk": "463401", "model": "ss.site", "fields": {"name": "Harvard Pediatrics", "zip_code": "01451"}}, {"pk": "011802", "model": "ss.site", "fields": {"name": "Kenmore Internal Medicine 4", "zip_code": "02215"}}, {"pk": "011804", "model": "ss.site", "fields": {"name": "Kenmore Internal Medicine 6E", "zip_code": "02215"}}, {"pk": "013401", "model": "ss.site", "fields": {"name": "Kenmore Pediatrics A", "zip_code": "02215"}}, {"pk": "014701", "model": "ss.site", "fields": {"name": "Kenmore Urgent Care, After Hours, Adult", "zip_code": "02215"}}, {"pk": "014801", "model": "ss.site", "fields": {"name": "Kenmore Urgent Care, After Hours, Pediatrics", "zip_code": "02215"}}, {"pk": "015001", "model": "ss.site", "fields": {"name": "Kenmore Urgent Care, Day, Adult", "zip_code": "02215"}}, {"pk": "016401", "model": "ss.site", "fields": {"name": "Kenmore Urgent Care, Weekend/Holiday, Adult", "zip_code": "02215"}}, {"pk": "016501", "model": "ss.site", "fields": {"name": "Kenmore Urgent Care, Weekend/Holiday, Pediatrics", "zip_code": "02215"}}, {"pk": "771802", "model": "ss.site", "fields": {"name": "Kingston Family Practice", "zip_code": "02364"}}, {"pk": "771801", "model": "ss.site", "fields": {"name": "Kingston Internal Medicine", "zip_code": "02364"}}, {"pk": "773401", "model": "ss.site", "fields": {"name": "Kingston Pediatrics", "zip_code": "02364"}}, {"pk": "775001", "model": "ss.site", "fields": {"name": "Kingston Urgent Care", "zip_code": "02364"}}, {"pk": "681801", "model": "ss.site", "fields": {"name": "Libbey Parkway Internal Medicine", "zip_code": "02189"}}, {"pk": "431801", "model": "ss.site", "fields": {"name": "Lynnfield Medical Associates Internal Medicine", "zip_code": "01960"}}, {"pk": "051801", "model": "ss.site", "fields": {"name": "Medford Internal Medicine B", "zip_code": "02155"}}, {"pk": "053401", "model": "ss.site", "fields": {"name": "Medford Pediatrics", "zip_code": "02155"}}, {"pk": "055001", "model": "ss.site", "fields": {"name": "Medford Urgent Care, Day, Adult", "zip_code": "02155"}}, {"pk": "733401", "model": "ss.site", "fields": {"name": "Milford Pediatrics", "zip_code": "01757"}}, {"pk": "781802", "model": "ss.site", "fields": {"name": "Norwell Family Practice", "zip_code": "02061"}}, {"pk": "781801", "model": "ss.site", "fields": {"name": "Norwell Internal Medicine", "zip_code": "02061"}}, {"pk": "783401", "model": "ss.site", "fields": {"name": "Norwell Pediatrics", "zip_code": "02061"}}, {"pk": "785001", "model": "ss.site", "fields": {"name": "Norwell Urgent Care", "zip_code": "02061"}}, {"pk": "711801", "model": "ss.site", "fields": {"name": "Norwood Internal Medicine", "zip_code": "02062"}}, {"pk": "713401", "model": "ss.site", "fields": {"name": "Norwood Pediatrics", "zip_code": "02062"}}, {"pk": "071801", "model": "ss.site", "fields": {"name": "Peabody Internal Medicine A", "zip_code": "01961"}}, {"pk": "073401", "model": "ss.site", "fields": {"name": "Peabody Pediatrics", "zip_code": "01961"}}, {"pk": "076101", "model": "ss.site", "fields": {"name": "Peabody Urgent Care Weekends, Combined", "zip_code": "01961"}}, {"pk": "076501", "model": "ss.site", "fields": {"name": "Peabody Urgent Care Weekends, Pediatrics", "zip_code": "01961"}}, {"pk": "074901", "model": "ss.site", "fields": {"name": "Peabody Urgent Care, After Hours, Combined", "zip_code": "01961"}}, {"pk": "081801", "model": "ss.site", "fields": {"name": "Post Office Square Internal Medicine 5", "zip_code": "02109"}}, {"pk": "081802", "model": "ss.site", "fields": {"name": "Post Office Square Internal Medicine 6", "zip_code": "02109"}}, {"pk": "081804", "model": "ss.site", "fields": {"name": "Post Office Square Internal Medicine 7", "zip_code": "02109"}}, {"pk": "085001", "model": "ss.site", "fields": {"name": "Post Office Square Urgent Care", "zip_code": "02109"}}, {"pk": "031801", "model": "ss.site", "fields": {"name": "Quincy Internal Medicine", "zip_code": "02170"}}, {"pk": "033401", "model": "ss.site", "fields": {"name": "Quincy Pediatrics", "zip_code": "02170"}}, {"pk": "151801", "model": "ss.site", "fields": {"name": "Somerville Internal Medicine", "zip_code": "02144"}}, {"pk": "153401", "model": "ss.site", "fields": {"name": "Somerville Pediatrics", "zip_code": "02144"}}, {"pk": "156401", "model": "ss.site", "fields": {"name": "Somerville Urgent Care, Weekend/Holiday, Adult", "zip_code": "02144"}}, {"pk": "156501", "model": "ss.site", "fields": {"name": "Somerville Urgent Care, Weekend/Holiday, Pediatrics", "zip_code": "02144"}}, {"pk": "751801", "model": "ss.site", "fields": {"name": "Southboro Adult Medicine", "zip_code": "01772"}}, {"pk": "753401", "model": "ss.site", "fields": {"name": "Southboro Pediatrics", "zip_code": "01772"}}, {"pk": "755001", "model": "ss.site", "fields": {"name": "Southboro Urgent Care", "zip_code": "01772"}}, {"pk": "511801", "model": "ss.site", "fields": {"name": "Sudbury Internal Medicine", "zip_code": "01776"}}, {"pk": "121801", "model": "ss.site", "fields": {"name": "Watertown Internal Medicine", "zip_code": "02472"}}, {"pk": "123401", "model": "ss.site", "fields": {"name": "Watertown Pediatrics", "zip_code": "02472"}}, {"pk": "124701", "model": "ss.site", "fields": {"name": "Watertown Urgent Care, After Hours, Adult", "zip_code": "02472"}}, {"pk": "041801", "model": "ss.site", "fields": {"name": "Wellesley Internal Medicine A", "zip_code": "02481"}}, {"pk": "041802", "model": "ss.site", "fields": {"name": "Wellesley Internal Medicine B", "zip_code": "02481"}}, {"pk": "041803", "model": "ss.site", "fields": {"name": "Wellesley Internal Medicine C", "zip_code": "02481"}}, {"pk": "043401", "model": "ss.site", "fields": {"name": "Wellesley Pediatrics", "zip_code": "02481"}}, {"pk": "044701", "model": "ss.site", "fields": {"name": "Wellesley Urgent Care - Adult After Hours", "zip_code": "02481"}}, {"pk": "044801", "model": "ss.site", "fields": {"name": "Wellesley Urgent Care - Pediatrics After Hours", "zip_code": "02481"}}, {"pk": "046401", "model": "ss.site", "fields": {"name": "Wellesley Urgent Care - Weekend Adult", "zip_code": "02481"}}, {"pk": "046501", "model": "ss.site", "fields": {"name": "Wellesley Urgent Care - Weekend Pediatrics", "zip_code": "02481"}}, {"pk": "015002", "model": "ss.site", "fields": {"name": "Wentworth Urgent Care", "zip_code": "02115"}}, {"pk": "101801", "model": "ss.site", "fields": {"name": "West Roxbury Internal Medicine A", "zip_code": "02467"}}, {"pk": "101802", "model": "ss.site", "fields": {"name": "West Roxbury Internal Medicine B", "zip_code": "02467"}}, {"pk": "103401", "model": "ss.site", "fields": {"name": "West Roxbury Pediatrics", "zip_code": "02467"}}, {"pk": "104801", "model": "ss.site", "fields": {"name": "West Roxbury Urgent Care, After Hours, Pediatrics", "zip_code": "02467"}}, {"pk": "763401", "model": "ss.site", "fields": {"name": "Westboro Pediatrics", "zip_code": "01581"}}]